[
  {
    "name": "STARLINK-3677",
    "noradId": "51970",
    "line1": "1 51970U 22025Q   26167.64190357  .00000812  00000+0  39533-4 0  9997",
    "line2": "2 51970  53.1617 297.0903 0001073  78.1463 281.9658 15.30199682235987"
  },
  {
    "name": "STARLINK-3669",
    "noradId": "51971",
    "line1": "1 51971U 22025R   26167.57231658 -.00000434  00000+0 -22200-5 0  9996",
    "line2": "2 51971  53.1598 284.4808 0000794  96.7688 263.3404 15.31693634236165"
  },
  {
    "name": "STARLINK-3671",
    "noradId": "51972",
    "line1": "1 51972U 22025S   26167.63168887  .00073514  00000+0  24227-2 0  9992",
    "line2": "2 51972  53.1613 297.1248 0000770  71.5404 288.5680 15.30822548235985"
  },
  {
    "name": "STARLINK-3679",
    "noradId": "51973",
    "line1": "1 51973U 22025T   26167.60329079  .00000457  00000+0  26481-4 0  9994",
    "line2": "2 51973  53.1609 296.8078 0000826  86.2142 273.8954 15.31699249235984"
  },
  {
    "name": "STARLINK-3672",
    "noradId": "51974",
    "line1": "1 51974U 22025U   26167.60798406  .00001557  00000+0  61942-4 0  9992",
    "line2": "2 51974  53.1593 297.0160 0001107  86.0695 274.0433 15.31694724235973"
  },
  {
    "name": "STARLINK-3674",
    "noradId": "51975",
    "line1": "1 51975U 22025V   26167.61418012  .00000297  00000+0  21338-4 0  9991",
    "line2": "2 51975  53.1600 283.6128 0001048  81.9387 278.1733 15.31697743236180"
  },
  {
    "name": "STARLINK-3660",
    "noradId": "51977",
    "line1": "1 51977U 22025X   26167.64703181  .00000179  00000+0  29342-4 0  9992",
    "line2": "2 51977  53.1613 294.7977 0000872  85.0746 275.0345 15.08830973236272"
  },
  {
    "name": "STARLINK-3649",
    "noradId": "51980",
    "line1": "1 51980U 22025AA  26167.56327280 -.00000008  00000+0  17566-4 0  9996",
    "line2": "2 51980  53.1613 315.1652 0001124  81.1804 278.9315 15.08831100235986"
  },
  {
    "name": "STARLINK-3635",
    "noradId": "51981",
    "line1": "1 51981U 22025AB  26167.57799473  .00000465  00000+0  47313-4 0  9994",
    "line2": "2 51981  53.1597 315.0985 0001098  87.0194 273.0923 15.08829833235984"
  },
  {
    "name": "STARLINK-3655",
    "noradId": "51983",
    "line1": "1 51983U 22025AD  26167.57431349  .00000445  00000+0  46035-4 0  9999",
    "line2": "2 51983  53.1613 315.1231 0001174  88.4057 271.7069 15.08831021235986"
  },
  {
    "name": "STARLINK-3664",
    "noradId": "51984",
    "line1": "1 51984U 22025AE  26167.14840061  .00000403  00000+0  43432-4 0  9990",
    "line2": "2 51984  53.1611 317.1166 0001296  87.7559 272.3581 15.08834186235923"
  },
  {
    "name": "STARLINK-3651",
    "noradId": "51985",
    "line1": "1 51985U 22025AF  26167.56791479  .00002065  00000+0  14783-3 0  9997",
    "line2": "2 51985  53.1613 315.1557 0001297  96.1870 263.9269 15.08828542235983"
  },
  {
    "name": "STARLINK-3645",
    "noradId": "51986",
    "line1": "1 51986U 22025AG  26167.58166309  .00000536  00000+0  51809-4 0  9990",
    "line2": "2 51986  53.1602 314.9282 0001130  80.8807 279.2312 15.08826264235999"
  },
  {
    "name": "STARLINK-3644",
    "noradId": "51987",
    "line1": "1 51987U 22025AH  26167.58334491  .00011702  00000+0  59889-3 0  9992",
    "line2": "2 51987  53.1593 314.8989 0001334 107.6570 190.9549 15.17054071  5741"
  },
  {
    "name": "STARLINK-3640",
    "noradId": "51988",
    "line1": "1 51988U 22025AJ  26167.59271349  .00000503  00000+0  49711-4 0  9997",
    "line2": "2 51988  53.1608 315.0342 0001260  90.1278 269.9858 15.08833426235995"
  },
  {
    "name": "STARLINK-3642",
    "noradId": "51989",
    "line1": "1 51989U 22025AK  26167.58334491  .00009245  00000+0  50727-3 0  9995",
    "line2": "2 51989  53.1595 315.0044 0001737 135.5769 129.9601 15.14832624  5642"
  },
  {
    "name": "STARLINK-3657",
    "noradId": "51990",
    "line1": "1 51990U 22025AL  26167.64239480 -.00001230  00000+0 -59188-4 0  9995",
    "line2": "2 51990  53.1612 294.8086 0001146  81.9018 278.2103 15.08834350236270"
  },
  {
    "name": "STARLINK-3652",
    "noradId": "51991",
    "line1": "1 51991U 22025AM  26167.58334491  .00005139  00000+0  27627-3 0  9999",
    "line2": "2 51991  53.1595 314.9055 0000817 124.3217 231.1592 15.16493834  5796"
  },
  {
    "name": "STARLINK-3643",
    "noradId": "51992",
    "line1": "1 51992U 22025AN  26167.63136704  .00002600  00000+0  18153-3 0  9997",
    "line2": "2 51992  53.1627 294.8591 0001507  97.2490 262.8673 15.08806060235844"
  },
  {
    "name": "STARLINK-3648",
    "noradId": "51993",
    "line1": "1 51993U 22025AP  26167.58903768 -.00000180  00000+0  67530-5 0  9991",
    "line2": "2 51993  53.1601 315.0527 0000855  93.8233 266.2856 15.08829968235993"
  },
  {
    "name": "STARLINK-3647",
    "noradId": "51994",
    "line1": "1 51994U 22025AQ  26167.56143649 -.00000462  00000+0 -10919-4 0  9996",
    "line2": "2 51994  53.1606 295.1744 0001273  87.9887 272.1250 15.08830798235843"
  },
  {
    "name": "STARLINK-3636",
    "noradId": "51995",
    "line1": "1 51995U 22025AR  26167.63871211 -.00000199  00000+0  56036-5 0  9995",
    "line2": "2 51995  53.1602 294.8259 0001272  87.2148 272.8989 15.08832028235843"
  },
  {
    "name": "STARLINK-3538",
    "noradId": "51996",
    "line1": "1 51996U 22025AS  26167.62399026  .00000807  00000+0  68780-4 0  9997",
    "line2": "2 51996  53.1607 294.8930 0001378  90.9174 269.1976 15.08839096235850"
  },
  {
    "name": "STARLINK-3589",
    "noradId": "51997",
    "line1": "1 51997U 22025AT  26167.63503086 -.00000065  00000+0  14027-4 0  9994",
    "line2": "2 51997  53.1609 294.8427 0001230  88.6040 271.5093 15.08833310235846"
  },
  {
    "name": "STARLINK-3618",
    "noradId": "51998",
    "line1": "1 51998U 22025AU  26167.59455421  .00000557  00000+0  53090-4 0  9997",
    "line2": "2 51998  53.1608 295.0272 0001129  94.9979 265.1142 15.08832667235854"
  },
  {
    "name": "STARLINK-3653",
    "noradId": "52000",
    "line1": "1 52000U 22025AW  26167.64606347  .00000241  00000+0  33264-4 0  9994",
    "line2": "2 52000  53.1623 294.7056 0001278  89.2685 270.8453 15.08830030235869"
  },
  {
    "name": "STARLINK-3659",
    "noradId": "52001",
    "line1": "1 52001U 22025AX  26167.59183341 -.00000106  00000+0  11459-4 0  9996",
    "line2": "2 52001  53.1599 295.0447 0001092  81.3156 278.7959 15.08830027235853"
  },
  {
    "name": "STARLINK-3668",
    "noradId": "52002",
    "line1": "1 52002U 22025AY  26167.59088006 -.00000939  00000+0 -40902-4 0  9999",
    "line2": "2 52002  53.1601 295.0772 0001076  83.5046 276.6068 15.08834093235858"
  },
  {
    "name": "STARLINK-3712",
    "noradId": "52090",
    "line1": "1 52090U 22029C   26167.24587535 -.00000570  00000+0 -17717-4 0  9992",
    "line2": "2 52090  53.1602   6.5907 0001338  81.0166 279.0976 15.08839070235538"
  },
  {
    "name": "STARLINK-3716",
    "noradId": "52092",
    "line1": "1 52092U 22029E   26167.24955323  .00000497  00000+0  49312-4 0  9990",
    "line2": "2 52092  53.1606   6.5749 0001256  87.3282 272.7853 15.08832785235535"
  }
]