OBJECT_NAME,OBJECT_ID,EPOCH,MEAN_MOTION,ECCENTRICITY,INCLINATION,RA_OF_ASC_NODE,ARG_OF_PERICENTER,MEAN_ANOMALY,EPHEMERIS_TYPE,CLASSIFICATION_TYPE,NORAD_CAT_ID,ELEMENT_SET_NO,REV_AT_EPOCH,BSTAR,MEAN_MOTION_DOT,MEAN_MOTION_DDOT
STARLINK-3677,2022-025Q,2026-06-16T15:24:20.468448,15.30199682,.00010735,53.1617,297.0903,78.1463,281.9658,0,U,51970,999,23598,.395328E-4,.812E-5,0
STARLINK-3669,2022-025R,2026-06-16T13:44:08.152512,15.31693634,.00007943,53.1598,284.4808,96.7688,263.3404,0,U,51971,999,23616,-.2220019E-5,-.434E-5,0
STARLINK-3671,2022-025S,2026-06-16T15:09:37.918368,15.30822548,.00007701,53.1613,297.1248,71.5404,288.5680,0,U,51972,999,23598,.24226576E-2,.73514E-3,0
STARLINK-3679,2022-025T,2026-06-16T14:28:44.324256,15.31699249,.00008261,53.1609,296.8078,86.2142,273.8954,0,U,51973,999,23598,.26480845E-4,.457E-5,0
STARLINK-3672,2022-025U,2026-06-16T14:35:29.822784,15.31694724,.00011077,53.1593,297.0160,86.0695,274.0433,0,U,51974,999,23597,.61942156E-4,.1557E-4,0
STARLINK-3674,2022-025V,2026-06-16T14:44:25.162368,15.31697743,.00010482,53.1600,283.6128,81.9387,278.1733,0,U,51975,999,23618,.21338315E-4,.297E-5,0
STARLINK-3660,2022-025X,2026-06-16T15:31:43.548384,15.08830973,.00008724,53.1613,294.7977,85.0746,275.0345,0,U,51977,999,23627,.29341653E-4,.179E-5,0
STARLINK-3649,2022-025AA,2026-06-16T13:31:06.769920,15.08831100,.00011244,53.1613,315.1652,81.1804,278.9315,0,U,51980,999,23598,.17566477E-4,-.8E-7,0
STARLINK-3635,2022-025AB,2026-06-16T13:52:18.744672,15.08829833,.00010981,53.1597,315.0985,87.0194,273.0923,0,U,51981,999,23598,.47312853E-4,.465E-5,0
STARLINK-3655,2022-025AD,2026-06-16T13:47:00.685536,15.08831021,.00011744,53.1613,315.1231,88.4057,271.7069,0,U,51983,999,23598,.46034659E-4,.445E-5,0
STARLINK-3664,2022-025AE,2026-06-16T03:33:41.812704,15.08834186,.00012966,53.1611,317.1166,87.7559,272.3581,0,U,51984,999,23592,.43432302E-4,.403E-5,0
STARLINK-3651,2022-025AF,2026-06-16T13:37:47.837856,15.08828542,.0001297,53.1613,315.1557,96.1870,263.9269,0,U,51985,999,23598,.14783095E-3,.2065E-4,0
STARLINK-3645,2022-025AG,2026-06-16T13:57:35.690976,15.08826264,.00011304,53.1602,314.9282,80.8807,279.2312,0,U,51986,999,23599,.51809498E-4,.536E-5,0
STARLINK-3644,2022-025AH,2026-06-16T14:00:01.000224,15.17054071,.0001334,53.1593,314.8989,107.6570,190.9549,0,U,51987,999,574,.59888808E-3,.11702E-3,0
STARLINK-3640,2022-025AJ,2026-06-16T14:13:30.445536,15.08833426,.00012601,53.1608,315.0342,90.1278,269.9858,0,U,51988,999,23599,.49710569E-4,.503E-5,0
STARLINK-3642,2022-025AK,2026-06-16T14:00:01.000224,15.14832624,.00017373,53.1595,315.0044,135.5769,129.9601,0,U,51989,999,564,.50727494E-3,.9245E-4,0
STARLINK-3657,2022-025AL,2026-06-16T15:25:02.910720,15.08834350,.0001146,53.1612,294.8086,81.9018,278.2103,0,U,51990,999,23627,-.59188287E-4,-.123E-4,0
STARLINK-3652,2022-025AM,2026-06-16T14:00:01.000224,15.16493834,.00008179,53.1595,314.9055,124.3217,231.1592,0,U,51991,999,579,.27627027E-3,.5139E-4,0
STARLINK-3643,2022-025AN,2026-06-16T15:09:10.112256,15.08806060,.00015072,53.1627,294.8591,97.2490,262.8673,0,U,51992,999,23584,.18152507E-3,.26E-4,0
STARLINK-3648,2022-025AP,2026-06-16T14:08:12.855552,15.08829968,.00008559,53.1601,315.0527,93.8233,266.2856,0,U,51993,999,23599,.6752952E-5,-.18E-5,0
STARLINK-3647,2022-025AQ,2026-06-16T13:28:28.112736,15.08830798,.00012736,53.1606,295.1744,87.9887,272.1250,0,U,51994,999,23584,-.10919423E-4,-.462E-5,0
STARLINK-3636,2022-025AR,2026-06-16T15:19:44.726304,15.08832028,.00012723,53.1602,294.8259,87.2148,272.8989,0,U,51995,999,23584,.5603615E-5,-.199E-5,0
STARLINK-3538,2022-025AS,2026-06-16T14:58:32.758464,15.08839096,.00013786,53.1607,294.8930,90.9174,269.1976,0,U,51996,999,23585,.68779603E-4,.807E-5,0
STARLINK-3589,2022-025AT,2026-06-16T15:14:26.666304,15.08833310,.00012309,53.1609,294.8427,88.6040,271.5093,0,U,51997,999,23584,.14026787E-4,-.65E-6,0
STARLINK-3618,2022-025AU,2026-06-16T14:16:09.483744,15.08832667,.00011291,53.1608,295.0272,94.9979,265.1142,0,U,51998,999,23585,.53090198E-4,.557E-5,0
STARLINK-3653,2022-025AW,2026-06-16T15:30:19.883808,15.08830030,.00012783,53.1623,294.7056,89.2685,270.8453,0,U,52000,999,23586,.3326395E-4,.241E-5,0
STARLINK-3659,2022-025AX,2026-06-16T14:12:14.406624,15.08830027,.00010924,53.1599,295.0447,81.3156,278.7959,0,U,52001,999,23585,.11459135E-4,-.106E-5,0
STARLINK-3668,2022-025AY,2026-06-16T14:10:52.037184,15.08834093,.00010763,53.1601,295.0772,83.5046,276.6068,0,U,52002,999,23585,-.40901871E-4,-.939E-5,0
STARLINK-3712,2022-029C,2026-06-16T05:54:03.630240,15.08839070,.0001338,53.1602,6.5907,81.0166,279.0976,0,U,52090,999,23553,-.17717E-4,-.57E-5,0
STARLINK-3716,2022-029E,2026-06-16T05:59:21.399072,15.08832785,.0001256,53.1606,6.5749,87.3282,272.7853,0,U,52092,999,23553,.49312E-4,.497E-5,0
